{"type": "FeatureCollection", "features": [ {"type": "Feature", "properties": {"norad_id": 37216, "name": "COSMO-SKYMED 4", "group": "resource", "lat": 81.97184732727247, "lon": 66.78939930492182, "alt_km": 614.0907728798193, "timestamp": "2025-12-12T07:43:20.160385+00:00", "meta": {"OBJECT_NAME": "COSMO-SKYMED 4", "OBJECT_ID": "2010-060A", "EPOCH": "2025-12-12T00:49:48.417024", "MEAN_MOTION": 14.82168218, "ECCENTRICITY": 0.0001388, "INCLINATION": 97.8809, "RA_OF_ASC_NODE": 167.3685, "ARG_OF_PERICENTER": 76.1836, "MEAN_ANOMALY": 283.9532, "EPHEMERIS_TYPE": 0, "CLASSIFICATION_TYPE": "U", "NORAD_CAT_ID": 37216, "ELEMENT_SET_NO": 999, "REV_AT_EPOCH": 81684, "BSTAR": 0.00012865734, "MEAN_MOTION_DOT": 9.73e-06, "MEAN_MOTION_DDOT": 0}, "tle": {"line1": "1 37216U 10060A   25346.03458816  .00000973  00000+0  12866-3 0  9995", "line2": "2 37216  97.8809 167.3685 0001388  76.1836 283.9532 14.82168218816849"}}, "geometry": {"type": "Point", "coordinates": [66.78939930492182, 81.97184732727247]}}, {"type": "Feature", "properties": {"norad_id": 37387, "name": "RESOURCESAT-2", "group": "resource", "lat": 31.984898654915476, "lon": -124.58098463299426, "alt_km": 819.1615970394951, "timestamp": "2025-12-12T07:43:20.160395+00:00", "meta": {"OBJECT_NAME": "RESOURCESAT-2", "OBJECT_ID": "2011-015A", "EPOCH": "2025-12-12T00:16:28.390944", "MEAN_MOTION": 14.21596785, "ECCENTRICITY": 0.00064759, "INCLINATION": 98.7878, "RA_OF_ASC_NODE": 49.5665, "ARG_OF_PERICENTER": 44.5789, "MEAN_ANOMALY": 315.5908, "EPHEMERIS_TYPE": 0, "CLASSIFICATION_TYPE": "U", "NORAD_CAT_ID": 37387, "ELEMENT_SET_NO": 999, "REV_AT_EPOCH": 75958, "BSTAR": 0.00012699161, "MEAN_MOTION_DOT": 2.34e-06, "MEAN_MOTION_DDOT": 0}, "tle": {"line1": "1 37387U 11015A   25346.01143971  .00000234  00000+0  12699-3 0  9990", "line2": "2 37387  98.7878  49.5665 0006475  44.5789 315.5908 14.21596785759584"}}, "geometry": {"type": "Point", "coordinates": [-124.58098463299426, 31.984898654915476]}}, {"type": "Feature", "properties": {"norad_id": 37781, "name": "HAIYANG-2A", "group": "resource", "lat": -76.02011267253089, "lon": 125.89159477621783, "alt_km": 976.5200585202956, "timestamp": "2025-12-12T07:43:20.160406+00:00", "meta": {"OBJECT_NAME": "HAIYANG-2A", "OBJECT_ID": "2011-043A", "EPOCH": "2025-12-11T23:30:04.745376", "MEAN_MOTION": 13.78835407, "ECCENTRICITY": 0.00016612, "INCLINATION": 99.3382, "RA_OF_ASC_NODE": 346.9251, "ARG_OF_PERICENTER": 84.0434, "MEAN_ANOMALY": 276.0906, "EPHEMERIS_TYPE": 0, "CLASSIFICATION_TYPE": "U", "NORAD_CAT_ID": 37781, "ELEMENT_SET_NO": 999, "REV_AT_EPOCH": 72088, "BSTAR": 0.00012289787, "MEAN_MOTION_DOT": 8.1e-07, "MEAN_MOTION_DDOT": 0}, "tle": {"line1": "1 37781U 11043A   25345.97922159  .00000081  00000+0  12290-3 0  9993", "line2": "2 37781  99.3382 346.9251 0001661  84.0434 276.0906 13.78835407720880"}}, "geometry": {"type": "Point", "coordinates": [125.89159477621783, -76.02011267253089]}}, {"type": "Feature", "properties": {"norad_id": 37791, "name": "RASAT", "group": "resource", "lat": -61.38933611050853, "lon": -119.48112076057204, "alt_km": 690.3354052622399, "timestamp": "2025-12-12T07:43:20.160417+00:00", "meta": {"OBJECT_NAME": "RASAT", "OBJECT_ID": "2011-044D", "EPOCH": "2025-12-12T00:37:35.153184", "MEAN_MOTION": 14.67907302, "ECCENTRICITY": 0.00219203, "INCLINATION": 98.0646, "RA_OF_ASC_NODE": 75.294, "ARG_OF_PERICENTER": 67.0956, "MEAN_ANOMALY": 53.8178, "EPHEMERIS_TYPE": 0, "CLASSIFICATION_TYPE": "U", "NORAD_CAT_ID": 37791, "ELEMENT_SET_NO": 999, "REV_AT_EPOCH": 76572, "BSTAR": 0.00015819216, "MEAN_MOTION_DOT": 8.59e-06, "MEAN_MOTION_DDOT": 0}, "tle": {"line1": "1 37791U 11044D   25346.02610131  .00000859  00000+0  15819-3 0  9999", "line2": "2 37791  98.0646  75.2940 0021920  67.0956  53.8178 14.67907302765724"}}, "geometry": {"type": "Point", "coordinates": [-119.48112076057204, -61.38933611050853]}}, {"type": "Feature", "properties": {"norad_id": 37841, "name": "SRMSAT", "group": "resource", "lat": 19.156743226263973, "lon": -142.5691689226928, "alt_km": 856.9148036745519, "timestamp": "2025-12-12T07:43:20.160427+00:00", "meta": {"OBJECT_NAME": "SRMSAT", "OBJECT_ID": "2011-058D", "EPOCH": "2025-12-11T16:31:02.191584", "MEAN_MOTION": 14.1151099, "ECCENTRICITY": 0.00117304, "INCLINATION": 19.9707, "RA_OF_ASC_NODE": 114.3146, "ARG_OF_PERICENTER": 301.8177, "MEAN_ANOMALY": 177.8356, "EPHEMERIS_TYPE": 0, "CLASSIFICATION_TYPE": "U", "NORAD_CAT_ID": 37841, "ELEMENT_SET_NO": 999, "REV_AT_EPOCH": 73129, "BSTAR": 0.0001411213, "MEAN_MOTION_DOT": 5.25e-06, "MEAN_MOTION_DDOT": 0}, "tle": {"line1": "1 37841U 11058D   25345.68821981  .00000525  00000+0  14112-3 0  9993", "line2": "2 37841  19.9707 114.3146 0011730 301.8177 177.8356 14.11510990731297"}}, "geometry": {"type": "Point", "coordinates": [-142.5691689226928, 19.156743226263973]}}, {"type": "Feature", "properties": {"norad_id": 38012, "name": "PLEIADES 1A", "group": "resource", "lat": 50.76053410462317, "lon": 48.95014342223658, "alt_km": 692.2705057160283, "timestamp": "2025-12-12T07:43:20.160438+00:00", "meta": {"OBJECT_NAME": "PLEIADES 1A", "OBJECT_ID": "2011-076F", "EPOCH": "2025-12-12T01:26:48.105600", "MEAN_MOTION": 14.5856033, "ECCENTRICITY": 0.00013371, "INCLINATION": 98.1819, "RA_OF_ASC_NODE": 58.8389, "ARG_OF_PERICENTER": 73.9014, "MEAN_ANOMALY": 45.4803, "EPHEMERIS_TYPE": 0, "CLASSIFICATION_TYPE": "U", "NORAD_CAT_ID": 38012, "ELEMENT_SET_NO": 999, "REV_AT_EPOCH": 74471, "BSTAR": 0.00016154511, "MEAN_MOTION_DOT": 7.06e-06, "MEAN_MOTION_DDOT": 0}, "tle": {"line1": "1 38012U 11076F   25346.06027900  .00000706  00000+0  16155-3 0  9996", "line2": "2 38012  98.1819  58.8389 0001337  73.9014  45.4803 14.58560330744713"}}, "geometry": {"type": "Point", "coordinates": [48.95014342223658, 50.76053410462317]}}, {"type": "Feature", "properties": {"norad_id": 38038, "name": "ZIYUAN 1-02C (ZY 1-02C)", "group": "resource", "lat": -9.827543235994241, "lon": 53.815072951293004, "alt_km": 773.5872495319172, "timestamp": "2025-12-12T07:43:20.160450+00:00", "meta": {"OBJECT_NAME": "ZIYUAN 1-02C (ZY 1-02C)", "OBJECT_ID": "2011-079A", "EPOCH": "2025-12-12T01:23:24.852192", "MEAN_MOTION": 14.38010763, "ECCENTRICITY": 0.00071331, "INCLINATION": 98.4329, "RA_OF_ASC_NODE": 52.0836, "ARG_OF_PERICENTER": 140.1376, "MEAN_ANOMALY": 285.0467, "EPHEMERIS_TYPE": 0, "CLASSIFICATION_TYPE": "U", "NORAD_CAT_ID": 38038, "ELEMENT_SET_NO": 999, "REV_AT_EPOCH": 73231, "BSTAR": 0.00028158984, "MEAN_MOTION_DOT": 8.09e-06, "MEAN_MOTION_DDOT": 0}, "tle": {"line1": "1 38038U 11079A   25346.05792653  .00000809  00000+0  28159-3 0  9991", "line2": "2 38038  98.4329  52.0836 0007133 140.1376 285.0467 14.38010763732310"}}, "geometry": {"type": "Point", "coordinates": [53.815072951293004, -9.827543235994241]}}, {"type": "Feature", "properties": {"norad_id": 38046, "name": "ZIYUAN 3-1 (ZY 3-1)", "group": "resource", "lat": -50.04603429108694, "lon": 61.37836739332876, "alt_km": 369.35108906386904, "timestamp": "2025-12-12T07:43:20.160461+00:00", "meta": {"OBJECT_NAME": "ZIYUAN 3-1 (ZY 3-1)", "OBJECT_ID": "2012-001A", "EPOCH": "2025-12-12T00:16:53.651712", "MEAN_MOTION": 15.68427534, "ECCENTRICITY": 0.00017398, "INCLINATION": 97.1753, "RA_OF_ASC_NODE": 52.4118, "ARG_OF_PERICENTER": 353.5619, "MEAN_ANOMALY": 6.562, "EPHEMERIS_TYPE": 0, "CLASSIFICATION_TYPE": "U", "NORAD_CAT_ID": 38046, "ELEMENT_SET_NO": 999, "REV_AT_EPOCH": 77485, "BSTAR": 0.00078096545, "MEAN_MOTION_DOT": 0.00088519, "MEAN_MOTION_DDOT": 0}, "tle": {"line1": "1 38046U 12001A   25346.01173208  .00088519  00000+0  78097-3 0  9991", "line2": "2 38046  97.1753  52.4118 0001739 353.5619   6.5620 15.68427534774853"}}, "geometry": {"type": "Point", "coordinates": [61.37836739332876, -50.04603429108694]}}, {"type": "Feature", "properties": {"norad_id": 38338, "name": "ARIRANG-3 (KOMPSAT-3)", "group": "resource", "lat": -54.988315747546196, "lon": -47.015983598967, "alt_km": 691.5808869126122, "timestamp": "2025-12-12T07:43:20.160471+00:00", "meta": {"OBJECT_NAME": "ARIRANG-3 (KOMPSAT-3)", "OBJECT_ID": "2012-025B", "EPOCH": "2025-12-11T23:45:46.010304", "MEAN_MOTION": 14.61711283, "ECCENTRICITY": 0.00054148, "INCLINATION": 98.3321, "RA_OF_ASC_NODE": 300.5739, "ARG_OF_PERICENTER": 341.2211, "MEAN_ANOMALY": 18.8789, "EPHEMERIS_TYPE": 0, "CLASSIFICATION_TYPE": "U", "NORAD_CAT_ID": 38338, "ELEMENT_SET_NO": 999, "REV_AT_EPOCH": 72399, "BSTAR": 0.00020687858, "MEAN_MOTION_DOT": 9.82e-06, "MEAN_MOTION_DDOT": 0}, "tle": {"line1": "1 38338U 12025B   25345.99011586  .00000982  00000+0  20688-3 0  9998", "line2": "2 38338  98.3321 300.5739 0005414 341.2211  18.8789 14.61711283723993"}}, "geometry": {"type": "Point", "coordinates": [-47.015983598967, -54.988315747546196]}}, {"type": "Feature", "properties": {"norad_id": 38709, "name": "EXACTVIEW-1 (ADS-1B)", "group": "resource", "lat": -2.7584620108990276, "lon": 95.13858227669623, "alt_km": 804.366507169505, "timestamp": "2025-12-12T07:43:20.160482+00:00", "meta": {"OBJECT_NAME": "EXACTVIEW-1 (ADS-1B)", "OBJECT_ID": "2012-039C", "EPOCH": "2025-12-11T21:37:25.407264", "MEAN_MOTION": 14.24907615, "ECCENTRICITY": 0.00107201, "INCLINATION": 98.9635, "RA_OF_ASC_NODE": 94.2734, "ARG_OF_PERICENTER": 356.6503, "MEAN_ANOMALY": 3.4602, "EPHEMERIS_TYPE": 0, "CLASSIFICATION_TYPE": "U", "NORAD_CAT_ID": 38709, "ELEMENT_SET_NO": 999, "REV_AT_EPOCH": 69603, "BSTAR": 0.00013676495, "MEAN_MOTION_DOT": 2.73e-06, "MEAN_MOTION_DDOT": 0}, "tle": {"line1": "1 38709U 12039C   25345.90098851  .00000273  00000+0  13676-3 0  9998", "line2": "2 38709  98.9635  94.2734 0010720 356.6503   3.4602 14.24907615696034"}}, "geometry": {"type": "Point", "coordinates": [95.13858227669623, -2.7584620108990276]}}]}